SLIM                    
1 57803U 23137D   23262.60000000 -.00000194  00000+0  00000+0 0  9993
2 57803  31.0510  16.2460 8935053 244.7740 158.4060  0.55220851    74
